     2.100          NAVIGATION                              RINEX VERSION / TYPE
fic2rin                                 02/10/2016 00:08:19 PGM / RUN BY / DATE
                                                            END OF HEADER
23 16  2  9  3 59 44.0 -.159125309438D-03 -.193267624127D-11  .000000000000D+00
     .200000000000D+01 -.468750000000D+01  .542272587830D-08  .108848878752D+01
    -.132247805595D-06  .104676302290D-01  .378489494324D-05  .515372084427D+04
     .187184000000D+06 -.651925802231D-07  .180889042083D+01  .122934579849D-06
     .946140049982D+00  .300031250000D+03 -.261370658931D+01 -.873214944336D-08
    -.145363197818D-09  .100000000000D+01  .188300000000D+04  .000000000000D+00
     .240000000000D+01  .000000000000D+00 -.200234353542D-07  .200000000000D+01
     .181206000000D+06  .400000000000D+01
17 16  2  9  3 59 44.0 -.200362410396D-03 -.568434188608D-12  .000000000000D+00
     .420000000000D+02 -.353437500000D+02  .461912097636D-08  .236109065025D+01
    -.204890966415D-05  .109867468709D-01  .551342964172D-06  .515363412285D+04
     .187184000000D+06  .577419996262D-07 -.128742952201D+01 -.195577740669D-06
     .974932287832D+00  .373343750000D+03 -.195262109368D+01 -.831463205208D-08
    -.216437586923D-09  .100000000000D+01  .188300000000D+04  .000000000000D+00
     .240000000000D+01  .000000000000D+00 -.107102096081D-07  .420000000000D+02
     .182166000000D+06  .400000000000D+01
24 16  2  9  3 59 44.0 -.120578333735D-04 -.568434188608D-12  .000000000000D+00
     .200000000000D+01 -.244062500000D+02  .467376610969D-08  .473718757476D+00
    -.130012631416D-05  .424207013566D-02  .118128955364D-04  .515363779831D+04
     .187184000000D+06  .819563865662D-07  .283513789720D+01  .298023223877D-07
     .950905926946D+00  .147531250000D+03  .356754122413D+00 -.808176520939D-08
    -.613239829615D-09  .100000000000D+01  .188300000000D+04  .000000000000D+00
     .240000000000D+01  .000000000000D+00  .232830643654D-08  .200000000000D+01
     .182226000000D+06  .400000000000D+01
 3 16  2  9  3 59 44.0 -.222814269364D-04 -.477484718431D-11  .000000000000D+00
     .700000000000D+01  .363750000000D+02  .441518391013D-08  .286006301937D+01
     .183656811714D-05  .299648148939D-03  .109244138002D-04  .515377524948D+04
     .187184000000D+06 -.745058059692D-08  .761763457866D+00 -.279396772385D-07
     .959363656159D+00  .169781250000D+03  .304611846944D+01 -.797497504686D-08
     .557880380814D-09  .100000000000D+01  .188300000000D+04  .000000000000D+00
     .240000000000D+01  .000000000000D+00  .186264514923D-08  .700000000000D+01
     .184866000000D+06  .400000000000D+01
 4 16  2  9  4  0  0.0 -.249752774835D-03 -.909494701773D-12  .000000000000D+00
     .124000000000D+03  .131500000000D+03  .524307553800D-08 -.286155916471D+01
     .663660466671D-05  .808468740433D-02  .976026058197D-05  .515361378098D+04
     .187200000000D+06  .707805156708D-07 -.235806135067D+01 -.199303030968D-06
     .983468075427D+00  .202750000000D+03  .854746308620D+00 -.776032324861D-08
     .456090426568D-09  .100000000000D+01  .188300000000D+04  .000000000000D+00
     .240000000000D+01  .630000000000D+02 -.190921127796D-07  .124000000000D+03
     .185916000000D+06  .400000000000D+01
27 16  2  9  3 59 44.0  .610863789916D-04  .352429196937D-11  .000000000000D+00
     .000000000000D+00 -.184375000000D+01  .488341769966D-08  .239698061991D+01
    -.968575477600D-07  .315975071862D-02  .542029738426D-06  .515362866211D+04
     .187184000000D+06 -.800937414169D-07 -.133673327281D+01  .651925802231D-07
     .969853440026D+00  .373906250000D+03  .205646945541D+00 -.855071331439D-08
    -.350014579512D-10  .100000000000D+01  .188300000000D+04  .000000000000D+00
     .240000000000D+01  .000000000000D+00  .139698386192D-08  .000000000000D+00
     .186096000000D+06  .400000000000D+01
 3 16  2  9  5 59 44.0 -.223158858716D-04 -.477484718431D-11  .000000000000D+00
     .800000000000D+01  .298125000000D+02  .447090051667D-08 -.237493820854D+01
     .153295695782D-05  .300919986330D-03  .112075358629D-04  .515377266121D+04
     .194384000000D+06  .279396772385D-07  .761706202178D+00 -.167638063431D-07
     .959367822549D+00  .161468750000D+03  .304805312008D+01 -.793961643118D-08
     .554665961207D-09  .100000000000D+01  .188300000000D+04  .000000000000D+00
     .240000000000D+01  .000000000000D+00  .186264514923D-08  .800000000000D+01
     .187206000000D+06  .400000000000D+01
17 16  2  9  5 59 44.0 -.200366601348D-03 -.568434188608D-12  .000000000000D+00
     .700000000000D+02 -.247500000000D+02  .470448167483D-08 -.287193041856D+01
    -.115297734737D-05  .109853023896D-01  .709667801857D-06  .515363694954D+04
     .194384000000D+06  .273808836937D-06 -.128749030041D+01 -.119209289551D-06
     .974930829302D+00  .371218750000D+03 -.195257975308D+01 -.838892086080D-08
    -.785747015231D-10  .100000000000D+01  .188300000000D+04  .000000000000D+00
     .240000000000D+01  .000000000000D+00 -.107102096081D-07  .700000000000D+02
     .187206000000D+06  .400000000000D+01
18 16  2  9  5 59 44.0  .481656752527D-03  .397903932026D-11  .000000000000D+00
     .190000000000D+02  .484687500000D+02  .526521931752D-08 -.131461256899D+01
     .262632966042D-05  .166177740321D-01  .113379210234D-04  .515366108322D+04
     .194384000000D+06  .242143869400D-06  .732499164148D+00  .467523932457D-06
     .925133991727D+00  .142281250000D+03 -.191433878922D+01 -.841213611352D-08
     .517878714584D-09  .100000000000D+01  .188300000000D+04  .000000000000D+00
     .240000000000D+01  .000000000000D+00 -.111758708954D-07  .190000000000D+02
     .187206000000D+06  .400000000000D+01
23 16  2  9  5 59 44.0 -.159139279276D-03 -.193267624127D-11  .000000000000D+00
     .300000000000D+01  .937500000000D+00  .541808282775D-08  .213872468254D+01
    -.484287738800D-07  .104677290656D-01  .377930700779D-05  .515371931839D+04
     .194384000000D+06 -.247731804848D-06  .180882705453D+01 -.204890966415D-07
     .946139811527D+00  .301531250000D+03 -.261378294193D+01 -.859214361156D-08
    -.164292557730D-10  .100000000000D+01  .188300000000D+04  .000000000000D+00
     .240000000000D+01  .000000000000D+00 -.200234353542D-07  .300000000000D+01
     .187206000000D+06  .400000000000D+01
24 16  2  9  5 59 44.0 -.120620243251D-04 -.568434188608D-12  .000000000000D+00
     .200000000000D+02 -.212812500000D+02  .463626454760D-08  .152395946111D+01
    -.119395554066D-05  .424225465395D-02  .116080045700D-04  .515363774490D+04
     .194384000000D+06  .465661287308D-07  .283507962040D+01  .987201929092D-07
     .950901545506D+00  .149312500000D+03  .356717028662D+00 -.807033616189D-08
    -.581095633537D-09  .100000000000D+01  .188300000000D+04  .000000000000D+00
     .240000000000D+01  .000000000000D+00  .232830643654D-08  .200000000000D+02
     .187206000000D+06  .400000000000D+01
27 16  2  9  5 59 44.0  .611119903624D-04  .352429196937D-11  .000000000000D+00
     .700000000000D+01  .312500000000D-01  .490806158332D-08 -.283589495292D+01
    -.298023223877D-07  .316061847843D-02  .935047864914D-06  .515362692833D+04
     .194384000000D+06 -.109896063805D-06 -.133679492164D+01 -.931322574615D-08
     .969853141591D+00  .367562500000D+03  .205549060229D+00 -.857428572485D-08
    -.175007289756D-10  .100000000000D+01  .188300000000D+04  .000000000000D+00
     .240000000000D+01  .000000000000D+00  .139698386192D-08  .700000000000D+01
     .187206000000D+06  .400000000000D+01
 1 16  2  9  6  0  0.0  .112699344754D-04  .102318153949D-11  .000000000000D+00
     .990000000000D+02 -.128375000000D+03  .435946730360D-08  .126877983711D+01
    -.650621950626D-05  .502289680298D-02  .982545316219D-05  .515366022682D+04
     .194400000000D+06 -.409781932831D-07 -.278928318644D+00  .372529029846D-07
     .964149207907D+00  .192375000000D+03  .469736096131D+00 -.804212070089D-08
    -.426803492364D-09  .100000000000D+01  .188300000000D+04  .000000000000D+00
     .240000000000D+01  .000000000000D+00  .512227416039D-08  .990000000000D+02
     .187206000000D+06  .400000000000D+01
 2 16  2  9  6  0  0.0  .599549151957D-03  .000000000000D+00  .000000000000D+00
     .640000000000D+02 -.132031250000D+03  .472126808834D-08  .175695958808D+01
    -.704079866409D-05  .154173874762D-01  .104866921902D-04  .515372818184D+04
     .194400000000D+06 -.340864062309D-06 -.322079316879D+00 -.212341547012D-06
     .942850646497D+00  .174218750000D+03 -.217082077458D+01 -.824177187431D-08
    -.417160233541D-09  .100000000000D+01  .188300000000D+04  .000000000000D+00
     .240000000000D+01  .000000000000D+00 -.204890966415D-07  .640000000000D+02
     .187206000000D+06  .400000000000D+01
 4 16  2  9  6  0  0.0 -.249759759754D-03 -.909494701773D-12  .000000000000D+00
     .125000000000D+03  .137250000000D+03  .521771733887D-08 -.181137212091D+01
     .696256756783D-05  .808442721609D-02  .965595245361D-05  .515361373901D+04
     .194400000000D+06  .141561031342D-06 -.235811773885D+01 -.726431608200D-07
     .983471794165D+00  .202000000000D+03  .854781696609D+00 -.777889545079D-08
     .544308386915D-09  .100000000000D+01  .188300000000D+04  .000000000000D+00
     .240000000000D+01  .630000000000D+02 -.190921127796D-07  .125000000000D+03
     .187206000000D+06  .400000000000D+01
 5 16  2  9  6  0  0.0 -.147734303027D-03  .341060513165D-11  .000000000000D+00
     .105000000000D+03  .494375000000D+02  .470698177897D-08 -.207695396142D+01
     .249221920967D-05  .456595781725D-02  .109896063805D-04  .515373009109D+04
     .194400000000D+06 -.819563865662D-07  .751243824618D+00 -.111758708954D-07
     .946490448121D+00  .161500000000D+03  .483536484093D+00 -.803283459980D-08
     .620740142033D-09  .100000000000D+01  .188300000000D+04  .000000000000D+00
     .240000000000D+01  .000000000000D+00 -.107102096081D-07  .105000000000D+03
     .187206000000D+06  .400000000000D+01
